NORAD_CAT_ID,OBJECT_NAME,OBJECT_TYPE,EPOCH,MEAN_MOTION,ECCENTRICITY,INCLINATION,RA_OF_ASC_NODE,ARG_OF_PERICENTER,MEAN_ANOMALY,BSTAR,MEAN_MOTION_DOT,MEAN_MOTION_DDOT,TLE_LINE0,TLE_LINE1,TLE_LINE2,SEMIMAJOR_AXIS,PERIOD,APOGEE,PERIGEE,DECAYED
53805.0,STARLINK-4763,PAYLOAD,2023-10-07 07:26:59,15.08851724,0.0001521,53.2173,259.3841,103.6141,256.5021,0.00024387,3.597e-05,0.0,0 STARLINK-4763,1 53805U 22111AJ  23280.31041622  .00003597  00000-0  24387-3 0  9993,2 53805  53.2173 259.3841 0001521 103.6141 256.5021 15.08851724 59704,6917.845,95.437,540.762,538.657,0.0
53805.0,STARLINK-4763,PAYLOAD,2023-10-07 15:23:55,15.08844538,0.0001374,53.2155,257.8973,98.2328,261.882,9.8552e-05,1.281e-05,0.0,0 STARLINK-4763,1 53805U 22111AJ  23280.64161829  .00001281  00000-0  98552-4 0  9995,2 53805  53.2155 257.8973 0001374  98.2328 261.8820 15.08844538 59751,6917.867,95.437,540.682,538.781,0.0
53805.0,STARLINK-4763,PAYLOAD,2023-10-08 02:31:38,15.08833716,0.000154,53.2191,255.8171,99.6502,260.4664,-7.7777e-05,-1.525e-05,0.0,0 STARLINK-4763,1 53805U 22111AJ  23281.10530381 -.00001525  00000-0 -77777-4 0  9999,2 53805  53.2191 255.8171 0001540  99.6502 260.4664 15.08833716 59828,6917.9,95.438,540.83,538.699,0.0
53805.0,STARLINK-4763,PAYLOAD,2023-10-08 08:53:10,15.08844611,0.0001311,53.2171,254.6237,84.5193,275.5949,0.00012316,1.673e-05,0.0,0 STARLINK-4763,1 53805U 22111AJ  23281.37026077  .00001673  00000-0  12316-3 0  9999,2 53805  53.2171 254.6237 0001311  84.5193 275.5949 15.08844611 59864,6917.866,95.437,540.638,538.824,0.0
53805.0,STARLINK-4763,PAYLOAD,2023-10-08 15:14:43,15.08833523,0.0001382,53.2154,253.4306,82.2295,277.8854,-4.8383e-05,-1.058e-05,0.0,0 STARLINK-4763,1 53805U 22111AJ  23281.63522359 -.00001058  00000-0 -48383-4 0  9995,2 53805  53.2154 253.4306 0001382  82.2295 277.8854 15.08833523 59900,6917.9,95.438,540.721,538.809,0.0
53805.0,STARLINK-4763,PAYLOAD,2023-10-09 07:08:34,15.08854959,0.0001392,53.215,250.46,86.4221,273.6931,0.00052904,8.145e-05,0.0,0 STARLINK-4763,1 53805U 22111AJ  23282.29761944  .00008145  00000-0  52904-3 0  9998,2 53805  53.2150 250.4600 0001392  86.4221 273.6931 15.08854959 60005,6917.835,95.437,540.663,538.737,0.0
53805.0,STARLINK-4763,PAYLOAD,2023-10-09 15:05:30,15.08847943,0.0001623,53.2153,248.9734,78.5696,281.5478,0.00041227,6.281e-05,0.0,0 STARLINK-4763,1 53805U 22111AJ  23282.62882270  .00006281  00000-0  41227-3 0  9996,2 53805  53.2153 248.9734 0001623  78.5696 281.5478 15.08847943 60057,6917.856,95.437,540.844,538.598,0.0
53805.0,STARLINK-4763,PAYLOAD,2023-10-09 21:27:03,15.08846858,0.0002241,53.2144,247.7859,77.9727,282.1516,0.00037514,5.688e-05,0.0,0 STARLINK-4763,1 53805U 22111AJ  23282.89378534  .00005688  00000-0  37514-3 0  9992,2 53805  53.2144 247.7859 0002241  77.9727 282.1516 15.08846858 60905,6917.859,95.437,541.275,538.174,0.0
53805.0,STARLINK-4763,PAYLOAD,2023-10-10 02:13:12,15.08841629,0.0001601,53.216,246.8926,82.5794,277.538,0.00025106,3.71e-05,0.0,0 STARLINK-4763,1 53805U 22111AJ  23283.09250535  .00003710  00000-0  25106-3 0  9993,2 53805  53.2160 246.8926 0001601  82.5794 277.5380 15.08841629 60125,6917.875,95.437,540.848,538.633,0.0
53805.0,STARLINK-4763,PAYLOAD,2023-10-10 10:10:07,15.08859403,0.0001583,53.2149,245.4053,81.0841,279.033,0.001943,0.00030787,0.0,0 STARLINK-4763,1 53805U 22111AJ  23283.42370314  .00030787  00000-0  19430-2 0  9994,2 53805  53.2149 245.4053 0001583  81.0841 279.0330 15.08859403 60170,6917.821,95.436,540.781,538.591,0.0
53805.0,STARLINK-4763,PAYLOAD,2023-10-10 14:56:17,15.088296,0.0001341,53.2154,244.5129,98.1476,261.9668,0.00042506,6.481e-05,0.0,0 STARLINK-4763,1 53805U 22111AJ  23283.62242862  .00006481  00000-0  42506-3 0  9997,2 53805  53.2154 244.5129 0001341  98.1476 261.9668 15.08829600 60209,6917.912,95.438,540.705,538.849,0.0
53805.0,STARLINK-4763,PAYLOAD,2023-10-10 21:17:50,15.08833771,0.0001274,53.2154,243.3234,104.2798,255.8336,0.00097408,0.00015246,0.0,0 STARLINK-4763,1 53805U 22111AJ  23283.88739048  .00015246  00000-0  97408-3 0  9992,2 53805  53.2154 243.3234 0001274 104.2798 255.8336 15.08833771 61056,6917.899,95.438,540.646,538.883,0.0
53805.0,STARLINK-4763,PAYLOAD,2023-10-11 03:39:23,15.08849793,0.0001385,53.2152,242.1338,102.6294,257.4853,0.0019728,0.00031257,0.0,0 STARLINK-4763,1 53805U 22111AJ  23284.15234975  .00031257  00000-0  19728-2 0  9990,2 53805  53.2152 242.1338 0001385 102.6294 257.4853 15.08849793 60289,6917.85,95.437,540.674,538.757,0.0
53805.0,STARLINK-4763,PAYLOAD,2023-10-11 06:50:09,15.08857646,0.0001405,53.2151,241.5391,101.7575,258.3575,0.0024262,0.00038555,0.0,0 STARLINK-4763,1 53805U 22111AJ  23284.28482916  .00038555  00000-0  24262-2 0  9991,2 53805  53.2151 241.5391 0001405 101.7575 258.3575 15.08857646 61115,6917.826,95.436,540.663,538.719,0.0
53805.0,STARLINK-4763,PAYLOAD,2023-10-11 21:08:38,15.08850211,0.0001838,53.2155,238.8627,94.8347,265.2855,0.0016212,0.00025615,0.0,0 STARLINK-4763,1 53805U 22111AJ  23284.88099596  .00025615  00000-0  16212-2 0  9994,2 53805  53.2155 238.8627 0001838  94.8347 265.2855 15.08850211 60397,6917.849,95.437,540.986,538.443,0.0
53805.0,STARLINK-4763,PAYLOAD,2023-10-12 03:30:10,15.0885,0.0001445,53.2164,237.6728,104.3908,255.7245,0.001732,0.00027392,0.0,0 STARLINK-4763,1 53805U 22111AJ  23285.14595558  .00027392  00000-0  17320-2 0  9998,2 53805  53.2164 237.6728 0001445 104.3908 255.7245 15.08850000 60438,6917.85,95.437,540.714,538.715,0.0
53805.0,STARLINK-4763,PAYLOAD,2023-10-12 06:40:56,15.08855919,0.0001484,53.2166,237.0782,103.6227,256.4931,0.0016867,0.0002667,0.0,0 STARLINK-4763,1 53805U 22111AJ  23285.27843438  .00026670  00000-0  16867-2 0  9998,2 53805  53.2166 237.0782 0001484 103.6227 256.4931 15.08855919 61269,6917.832,95.437,540.723,538.67,0.0
53805.0,STARLINK-4763,PAYLOAD,2023-10-13 03:20:57,15.08859233,0.0001253,53.216,233.212,88.874,271.2395,0.0012237,0.00019251,0.0,0 STARLINK-4763,1 53805U 22111AJ  23286.13955438  .00019251  00000-0  12237-2 0  9992,2 53805  53.2160 233.2120 0001253  88.8740 271.2395 15.08859233 60581,6917.822,95.436,540.553,538.82,0.0
53805.0,STARLINK-4763,PAYLOAD,2023-10-13 20:50:11,15.08864232,0.000141,53.2167,229.9406,118.1056,242.0079,0.0018888,0.0002992,0.0,0 STARLINK-4763,1 53805U 22111AJ  23286.86819105  .00029920  00000-0  18888-2 0  9994,2 53805  53.2167 229.9406 0001410 118.1056 242.0079 15.08864232 60691,6917.806,95.436,540.647,538.696,0.0
53805.0,STARLINK-4763,PAYLOAD,2023-10-14 12:44:02,15.08866304,0.0001205,53.2172,226.9677,97.8661,262.2468,0.0009294,0.00014545,0.0,0 STARLINK-4763,1 53805U 22111AJ  23287.53058317  .00014545  00000-0  92940-3 0  9998,2 53805  53.2172 226.9677 0001205  97.8661 262.2468 15.08866304 61601,6917.8,95.436,540.499,538.831,0.0
53805.0,STARLINK-4763,PAYLOAD,2023-10-14 20:40:59,15.08836611,0.0003034,53.2173,225.4811,75.0397,285.0931,0.00058836,9.087e-05,0.0,0 STARLINK-4763,1 53805U 22111AJ  23287.86179482  .00009087  00000-0  58836-3 0  9992,2 53805  53.2173 225.4811 0003034  75.0397 285.0931 15.08836611 60843,6917.891,95.438,541.855,537.657,0.0
53805.0,STARLINK-4763,PAYLOAD,2023-10-15 01:27:08,15.08819633,0.0001407,53.2166,224.5886,81.7945,278.3207,-1.9953e-05,-6.05e-06,0.0,0 STARLINK-4763,1 53805U 22111AJ  23288.06051612 -.00000605  00000-0 -19953-4 0  9996,2 53805  53.2166 224.5886 0001407  81.7945 278.3207 15.08819633 60871,6917.943,95.439,540.781,538.834,0.0
53805.0,STARLINK-4763,PAYLOAD,2023-10-15 12:34:51,15.08834043,0.000134,53.2167,222.5079,81.2228,278.8915,0.0012517,0.00019686,0.0,0 STARLINK-4763,1 53805U 22111AJ  23288.52420200  .00019686  00000-0  12517-2 0  9994,2 53805  53.2167 222.5079 0001340  81.2228 278.8915 15.08834043 61750,6917.899,95.438,540.691,538.837,0.0
53805.0,STARLINK-4763,PAYLOAD,2023-10-15 20:31:46,15.08844731,0.0001358,53.2156,221.0225,91.385,268.7298,0.0013904,0.00021912,0.0,0 STARLINK-4763,1 53805U 22111AJ  23288.85540384  .00021912  00000-0  13904-2 0  9992,2 53805  53.2156 221.0225 0001358  91.3850 268.7298 15.08844731 60999,6917.866,95.437,540.67,538.791,0.0
53805.0,STARLINK-4763,PAYLOAD,2023-10-16 12:25:38,15.08856149,0.0001987,53.2164,218.048,91.5335,268.5885,0.0010634,0.00016684,0.0,0 STARLINK-4763,1 53805U 22111AJ  23289.51780221  .00016684  00000-0  10634-2 0  9999,2 53805  53.2164 218.0480 0001987  91.5335 268.5885 15.08856149 61093,6917.831,95.437,541.071,538.321,0.0
53805.0,STARLINK-4763,PAYLOAD,2023-10-17 12:16:25,15.08838585,0.0002365,53.2153,213.5884,83.7063,276.4199,0.0013332,0.00020993,0.0,0 STARLINK-4763,1 53805U 22111AJ  23290.51140047  .00020993  00000-0  13332-2 0  9993,2 53805  53.2153 213.5884 0002365  83.7063 276.4199 15.08838585 61248,6917.885,95.438,541.386,538.114,0.0
53805.0,STARLINK-4763,PAYLOAD,2023-10-18 02:34:53,15.08854951,0.0001354,53.2152,210.912,94.3044,265.8103,0.0020934,0.00033199,0.0,0 STARLINK-4763,1 53805U 22111AJ  23291.10755834  .00033199  00000-0  20934-2 0  9993,2 53805  53.2152 210.9120 0001354  94.3044 265.8103 15.08854951 62147,6917.835,95.437,540.636,538.763,0.0
53805.0,STARLINK-4763,PAYLOAD,2023-10-18 12:07:12,15.08845832,0.0001844,53.2164,209.1267,88.414,271.7063,0.0011661,0.00018322,0.0,0 STARLINK-4763,1 53805U 22111AJ  23291.50500156  .00018322  00000-0  11661-2 0  9990,2 53805  53.2164 209.1267 0001844  88.4140 271.7063 15.08845832 61392,6917.863,95.437,541.003,538.452,0.0
53805.0,STARLINK-4763,PAYLOAD,2023-10-18 21:39:30,15.08852494,7.05e-05,53.2168,207.3424,98.6894,261.4178,0.0016859,0.00026654,0.0,0 STARLINK-4763,1 53805U 22111AJ  23291.90243784  .00026654  00000-0  16859-2 0  9996,2 53805  53.2168 207.3424 0000705  98.6894 261.4178 15.08852494 62267,6917.842,95.437,540.195,539.219,0.0
53805.0,STARLINK-4763,PAYLOAD,2023-10-19 00:50:17,15.08854204,0.0001445,53.2152,206.7471,92.4967,267.619,0.0014537,0.00022932,0.0,0 STARLINK-4763,1 53805U 22111AJ  23292.03491984  .00022932  00000-0  14537-2 0  9994,2 53805  53.2152 206.7471 0001445  92.4967 267.6190 15.08854204 61475,6917.837,95.437,540.702,538.702,0.0
